[Satellite]
VERSION=1.1
NAME=COSMOS 2432 (719)
NICKNAME=COSMOS 2432 (719)
TLE1=1 32276U 07052B   22342.40251421 -.00000063  00000+0  00000+0 0  9994
TLE2=2 32276  66.0832 359.0040 0010669 313.2051 143.4041  2.13103345117676
STATUS=0
